STARLINK-2357
1 17897C 21021AP  21325.99274979  .00005025  00000-0  33670-3 0  3257
2 17897  53.0519 113.7961 0001409  80.1671 225.4017 15.06393988    19
